NORAD_CAT_ID,OBJECT_NAME,OBJECT_TYPE,EPOCH,MEAN_MOTION,ECCENTRICITY,INCLINATION,RA_OF_ASC_NODE,ARG_OF_PERICENTER,MEAN_ANOMALY,BSTAR,MEAN_MOTION_DOT,MEAN_MOTION_DDOT,TLE_LINE0,TLE_LINE1,TLE_LINE2,SEMIMAJOR_AXIS,PERIOD,APOGEE,PERIGEE,DECAYED
52607.0,STARLINK-3947,PAYLOAD,2022-07-29 20:00:01,15.08838246,0.0001629999999999,53.2136,84.6943,68.038,239.0064,-0.0015581,-0.00024999,0.0,0 STARLINK-3947,1 52607U 22052K   22210.83334491 -.00024999  00000-0 -15581-2 0  9990,2 52607  53.2136  84.6943 0001630  68.0380 239.0064 15.08838246 12058,6917.886,95.438,540.878,538.623,0.0
52607.0,STARLINK-3947,PAYLOAD,2022-07-29 22:00:00,15.08831996,0.0001685,53.2135,84.3206,65.6955,334.2465,-0.0010723,-0.0001730999999999,0.0,0 STARLINK-3947,1 52607U 22052K   22210.91667824 -.00017310  00000-0 -10723-2 0  9990,2 52607  53.2135  84.3206 0001685  65.6955 334.2465 15.08831996  1301,6917.905,95.438,540.936,538.604,0.0
52607.0,STARLINK-3947,PAYLOAD,2022-07-30 12:00:00,15.08808862,0.0001585999999999,53.2135,81.7001,70.4923,259.7265,0.003068,0.00048836,0.0,0 STARLINK-3947,1 52607U 22052K   22211.50001157  .00048836  00000-0  30680-2 0  9996,2 52607  53.2135  81.7001 0001586  70.4923 259.7265 15.08808862 12154,6917.976,95.44,540.938,538.743,0.0
52607.0,STARLINK-3947,PAYLOAD,2022-07-30 14:00:01,15.08818357,0.0001621999999999,53.2135,81.3258,71.7469,351.3635,0.0025632,0.00040717,0.0,0 STARLINK-3947,1 52607U 22052K   22211.58334491  .00040717  00000-0  25632-2 0  9995,2 52607  53.2135  81.3258 0001622  71.7469 351.3635 15.08818357  1309,6917.946999999999,95.439,540.934,538.689,0.0
52607.0,STARLINK-3947,PAYLOAD,2022-07-30 22:00:00,15.08842982,0.0001764,53.2136,79.831,65.8401,8.8562,-0.00087573,-0.0001419999999999,0.0,0 STARLINK-3947,1 52607U 22052K   22211.91667824 -.00014200  00000-0 -87573-3 0  9994,2 52607  53.2136  79.8310 0001764  65.8401   8.8562 15.08842982  1302,6917.871,95.437,540.957,538.516,0.0
52607.0,STARLINK-3947,PAYLOAD,2022-07-31 04:00:00,15.088408800000002,0.0001725,53.2135,78.7086,62.5852,290.8044,0.00051955,7.99e-05,0.0,0 STARLINK-3947,1 52607U 22052K   22212.16667824  .00007990  00000-0  51955-3 0  9993,2 52607  53.2135  78.7086 0001725  62.5852 290.8044 15.08840880 12259,6917.878000000002,95.437,540.936,538.549,0.0
52607.0,STARLINK-3947,PAYLOAD,2022-07-31 14:00:01,15.08834824,0.0001688,53.2139,76.836,72.3268,25.5652,0.0021568,0.000342,0.0,0 STARLINK-3947,1 52607U 22052K   22212.58334491  .00034200  00000-0  21568-2 0  9990,2 52607  53.2139  76.8360 0001688  72.3268  25.5652 15.08834824  1308,6917.896,95.438,540.929,538.5930000000002,0.0
52607.0,STARLINK-3947,PAYLOAD,2022-07-31 22:00:00,15.08864142,0.0001774,53.214,75.3412,65.6816,43.8128,-0.0032814999999999,-0.0005217,0.0,0 STARLINK-3947,1 52607U 22052K   22212.91667824 -.00052170  00000-0 -32815-2 0  9991,2 52607  53.2140  75.3412 0001774  65.6816  43.8128 15.08864142  1309,6917.807,95.436,540.899,538.444,0.0
52607.0,STARLINK-3947,PAYLOAD,2022-08-01 04:00:00,15.08837089,0.000168,53.2138,74.2187,62.4426,325.7577,-0.00067107,-0.00010951,0.0,0 STARLINK-3947,1 52607U 22052K   22213.16667824 -.00010951  00000-0 -67107-3 0  9993,2 52607  53.2138  74.2187 0001680  62.4426 325.7577 15.08837089 12404,6917.889,95.438,540.9159999999998,538.592,0.0
52607.0,STARLINK-3947,PAYLOAD,2022-08-01 14:00:01,15.08825495,0.0001621,53.2144,72.3463,72.6881,59.9969,0.0017765,0.00028087,0.0,0 STARLINK-3947,1 52607U 22052K   22213.58334491  .00028087  00000-0  17765-2 0  9991,2 52607  53.2144  72.3463 0001621  72.6881  59.9969 15.08825495  1306,6917.925,95.438,540.911,538.668,0.0
52607.0,STARLINK-3947,PAYLOAD,2022-08-01 22:00:00,15.088358800000002,0.0001721999999999,53.2144,70.8516,65.6153,78.66,-0.0001498,-2.671e-05,0.0,0 STARLINK-3947,1 52607U 22052K   22213.91667824 -.00002671  00000-0 -14980-3 0  9997,2 52607  53.2144  70.8516 0001722  65.6153  78.6600 15.08835880  1303,6917.893,95.438,540.9490000000002,538.567,0.0
52607.0,STARLINK-3947,PAYLOAD,2022-08-02 04:00:00,15.08846011,0.0001679,53.2142,69.7289,63.8539,359.1097,-0.00045302,-7.492e-05,0.0,0 STARLINK-3947,1 52607U 22052K   22214.16667824 -.00007492  00000-0 -45302-3 0  9993,2 52607  53.2142  69.7289 0001679  63.8539 359.1097 15.08846011 12558,6917.861999999999,95.437,540.889,538.566,0.0
52607.0,STARLINK-3947,PAYLOAD,2022-08-02 14:00:01,15.08841026,0.0001618,53.2147,67.8568,74.7747,92.6875,0.0013557,0.00021354,0.0,0 STARLINK-3947,1 52607U 22052K   22214.58334491  .00021354  00000-0  13557-2 0  9997,2 52607  53.2147  67.8568 0001618  74.7747  92.6875 15.08841026 12618,6917.877,95.437,540.862,538.623,0.0
52607.0,STARLINK-3947,PAYLOAD,2022-08-03 04:00:00,15.08830656,0.0001776999999999,53.2143,65.2393,67.9394,29.7919,-0.00087008,-0.00014105,0.0,0 STARLINK-3947,1 52607U 22052K   22215.16667824 -.00014105  00000-0 -87008-3 0  9992,2 52607  53.2143  65.2393 0001777  67.9394  29.7919 15.08830656 12707,6917.909000000002,95.438,541.003,538.545,0.0
52607.0,STARLINK-3947,PAYLOAD,2022-08-03 14:00:01,15.08827258,0.0001727,53.2147,63.3676,78.3048,123.8978,0.001024,0.00016041,0.0,0 STARLINK-3947,1 52607U 22052K   22215.58334491  .00016041  00000-0  10240-2 0  9991,2 52607  53.2147  63.3676 0001727  78.3048 123.8978 15.08827258  1300,6917.919,95.438,540.979,538.59,0.0
52607.0,STARLINK-3947,PAYLOAD,2022-08-03 20:00:01,15.08837088,0.0001786,53.2144,62.2467,72.058,48.8323,-0.0011618,-0.00018729,0.0,0 STARLINK-3947,1 52607U 22052K   22215.83334491 -.00018729  00000-0 -11618-2 0  9996,2 52607  53.2144  62.2467 0001786  72.0580  48.8323 15.08837088 12809,6917.889,95.438,540.99,538.519,0.0
52607.0,STARLINK-3947,PAYLOAD,2022-08-03 22:00:01,15.08822451,0.0001808,53.2145,61.8728,70.4211,143.4323,0.00077348,0.00012037,0.0,0 STARLINK-3947,1 52607U 22052K   22215.91668981  .00012037  00000-0  77348-3 0  9996,2 52607  53.2145  61.8728 0001808  70.4211 143.4323 15.08822451  1306,6917.934,95.439,541.05,538.548,0.0
52607.0,STARLINK-3947,PAYLOAD,2022-08-04 12:00:00,15.08821477,0.0001705,53.2143,59.2522,79.5691,64.4956,0.002269,0.0003598999999999,0.0,0 STARLINK-3947,1 52607U 22052K   22216.50001157  .00035990  00000-0  22690-2 0  9990,2 52607  53.2143  59.2522 0001705  79.5691  64.4956 15.08821477 12904,6917.937,95.439,540.982,538.622,0.0
52607.0,STARLINK-3947,PAYLOAD,2022-08-04 14:00:01,15.08840104,0.0001738,53.2145,58.8784,80.3255,156.6292,0.00059021,9.118e-05,0.0,0 STARLINK-3947,1 52607U 22052K   22216.58334491  .00009118  00000-0  59021-3 0  9990,2 52607  53.2145  58.8784 0001738  80.3255 156.6292 15.08840104  1300,6917.88,95.438,540.947,538.543,0.0
52607.0,STARLINK-3947,PAYLOAD,2022-08-04 22:00:00,15.08828174,0.0001815,53.2144,57.3837,72.0481,176.5084,0.0012383,0.00019468,0.0,0 STARLINK-3947,1 52607U 22052K   22216.91667824  .00019468  00000-0  12383-2 0  9994,2 52607  53.2144  57.3837 0001815  72.0481 176.5084 15.08828174  1300,6917.917,95.438,541.0369999999998,538.526,0.0
52607.0,STARLINK-3947,PAYLOAD,2022-08-05 04:00:00,15.08856963,0.0001754,53.214,56.2606,72.9369,94.3068,-0.0015080999999999,-0.00024221,0.0,0 STARLINK-3947,1 52607U 22052K   22217.16667824 -.00024221  00000-0 -15081-2 0  9995,2 52607  53.2140  56.2606 0001754  72.9369  94.3068 15.08856963 13000,6917.829000000002,95.436,540.9069999999998,538.48,0.0
52607.0,STARLINK-3947,PAYLOAD,2022-08-05 14:00:01,15.08854544,0.0001761,53.2143,54.3891,81.1398,190.669,0.00036779,5.572e-05,0.0,0 STARLINK-3947,1 52607U 22052K   22217.58335648  .00005572  00000-0  36779-3 0  9991,2 52607  53.2143  54.3891 0001761  81.1398 190.6690 15.08854544  1304,6917.8359999999975,95.437,540.919,538.4830000000002,0.0
52607.0,STARLINK-3947,PAYLOAD,2022-08-05 20:00:01,15.08852792,0.0001799,53.2142,53.2683,73.9376,116.5834,-0.00032441,-5.449e-05,0.0,0 STARLINK-3947,1 52607U 22052K   22217.83335648 -.00005449  00000-0 -32441-3 0  9996,2 52607  53.2142  53.2683 0001799  73.9376 116.5834 15.08852792 13107,6917.840999999999,95.437,540.951,538.462,0.0
52607.0,STARLINK-3947,PAYLOAD,2022-08-05 22:00:00,15.08841938,0.0001807,53.2143,52.8945,72.5356,210.8277,0.001249,0.00019647,0.0,0 STARLINK-3947,1 52607U 22052K   22217.91667824  .00019647  00000-0  12490-2 0  9993,2 52607  53.2143  52.8945 0001807  72.5356 210.8277 15.08841938  1305,6917.874,95.437,540.99,538.489,0.0
52607.0,STARLINK-3947,PAYLOAD,2022-08-06 14:00:01,15.08842942,0.0001675,53.2144,49.8999,79.8507,226.7117,5.0732e-05,5.19e-06,0.0,0 STARLINK-3947,1 52607U 22052K   22218.58334491  .00000519  00000-0  50732-4 0  9999,2 52607  53.2144  49.8999 0001675  79.8507 226.7117 15.08842942  1307,6917.871,95.437,540.895,538.578,0.0
52607.0,STARLINK-3947,PAYLOAD,2022-08-06 22:00:00,15.08822181,0.0001757,53.2145,48.4052,71.197,246.9676,0.0021754,0.00034487,0.0,0 STARLINK-3947,1 52607U 22052K   22218.91667824  .00034487  00000-0  21754-2 0  9996,2 52607  53.2145  48.4052 0001757  71.1970 246.9676 15.08822181  1300,6917.935,95.439,541.015,538.5840000000002,0.0
52607.0,STARLINK-3947,PAYLOAD,2022-08-07 04:00:00,15.08860638,0.0001656,53.2144,47.2818,72.4105,164.4391,-0.0019186,-0.0003071,0.0,0 STARLINK-3947,1 52607U 22052K   22219.16667824 -.00030710  00000-0 -19186-2 0  9997,2 52607  53.2144  47.2818 0001656  72.4105 164.4391 15.08860638 13319,6917.816999999999,95.436,540.828,538.5369999999998,0.0
52607.0,STARLINK-3947,PAYLOAD,2022-08-07 12:29:35,15.08849939,0.0001674,53.2157,45.6922,77.1843,282.9336,3.7657e-05,3.11e-06,0.0,0 STARLINK-3947,1 52607U 22052K   22219.52055399  .00000311  00000-0  37657-4 0  9992,2 52607  53.2157  45.6922 0001674  77.1843 282.9336 15.08849939 12980,6917.85,95.437,540.873,538.557,0.0
52607.0,STARLINK-3947,PAYLOAD,2022-08-07 20:00:01,15.08821055,0.0001662,53.2147,44.2896,70.1383,189.9238,0.00060385,9.33e-05,0.0,0 STARLINK-3947,1 52607U 22052K   22219.83334491  .00009330  00000-0  60385-3 0  9992,2 52607  53.2147  44.2896 0001662  70.1383 189.9238 15.08821055 13418,6917.938,95.439,540.953,538.654,0.0
